[{"OBJECT_NAME":"ICEYE-X40","OBJECT_ID":"2024-149CK","EPOCH":"2026-03-09T18:13:16.348800","MEAN_MOTION":14.97556326,"ECCENTRICITY":0.00059832,"INCLINATION":97.6865,"RA_OF_ASC_NODE":146.8579,"ARG_OF_PERICENTER":65.2061,"MEAN_ANOMALY":294.9783,"EPHEMERIS_TYPE":0,"CLASSIFICATION_TYPE":"U","NORAD_CAT_ID":60549,"ELEMENT_SET_NO":999,"REV_AT_EPOCH":8519,"BSTAR":0.00028351559,"MEAN_MOTION_DOT":3.253e-5,"MEAN_MOTION_DDOT":0},{"OBJECT_NAME":"OBJECT F","OBJECT_ID":"2025-026F","EPOCH":"2026-03-09T16:35:22.568352","MEAN_MOTION":14.96835273,"ECCENTRICITY":0.001234,"INCLINATION":81.996,"RA_OF_ASC_NODE":175.2789,"ARG_OF_PERICENTER":38.1083,"MEAN_ANOMALY":322.1008,"EPHEMERIS_TYPE":0,"CLASSIFICATION_TYPE":"U","NORAD_CAT_ID":63330,"ELEMENT_SET_NO":999,"REV_AT_EPOCH":5316,"BSTAR":0.00045702,"MEAN_MOTION_DOT":5.266e-5,"MEAN_MOTION_DDOT":0}]
